#aV2019  3 10  0  0  0.00000000     288 DD+AD WGS84 FIT  NGA
## 2044      0.00000000   300.00000000 58552 0.0000000000000
+   31     1  2  3  5  6  7  8  9 10 11 12 13 14 15 16 17 18
+         19 20 21 22 23 24 25 26 27 28 29 30 31 32  0  0  0
+          0  0  0  0  0  0  0  0  0  0  0  0  0  0  0  0  0
+          0  0  0  0  0  0  0  0  0  0  0  0  0  0  0  0  0
+          0  0  0  0  0  0  0  0  0  0  0  0  0  0  0  0  0
++         2  2  2  2  2  2  2  2  2  2  2  2  2  2  2  2  2
++         2  2  2  2  2  2  2  2  2  2  2  2  2  2  0  0  0
++         0  0  0  0  0  0  0  0  0  0  0  0  0  0  0  0  0
++         0  0  0  0  0  0  0  0  0  0  0  0  0  0  0  0  0
++         0  0  0  0  0  0  0  0  0  0  0  0  0  0  0  0  0
%c cc cc ccc ccc cccc cccc cccc cccc ccccc ccccc ccccc ccccc
%c cc cc ccc ccc cccc cccc cccc cccc ccccc ccccc ccccc ccccc
%f  0.0000000  0.000000000  0.00000000000  0.000000000000000
%f  0.0000000  0.000000000  0.00000000000  0.000000000000000
%i    0    0    0    0      0      0      0      0         0
%i    0    0    0    0      0      0      0      0         0
/*      NGA, ST. LOUIS,MO.                                  
/*   EPHEMERIS COMPUTED FROM 2 DAYS OF DATA                 
/*   EPOCHA v3 SMOOTHER                                     
/*   G1762 IERS2010 SATAF SATAPC                            
*  2019  3 10 17 45  0.00000000
P  1 -12879.752768 -13390.818974 -19272.183750   -178.164133                    
V  1  23977.950339   -397.601192 -15581.448693     -0.074409                    
P  2 -11383.853612  14481.697565  19679.420338   -160.075402                    
V  2 -23818.898520   -274.716552 -14185.255291     -0.096786                    
P  3 -12689.075506 -23378.666662   -275.564977    185.987769                    
V  3   2511.820180  -1035.712192 -31743.550523      0.011753                    
P  5  -1967.189114  20338.658199  16739.820913      1.168890                    
V  5 -12779.365079 -17540.229682  19870.439807      0.000246                    
P  6 -22272.416202   7935.839911  12175.373378    258.251245                    
V  6 -15322.384653  -2198.829705 -26667.931029     -0.087202                    
P  7 -24129.588603  -7360.571050   9273.877578     17.525130                    
V  7  11365.403239  -1901.233355  28375.714435     -0.073145                    
P  8   3252.598570 -22935.252414 -12768.420254   -135.652852                    
V  8  10128.694315 -13010.911249  26056.338690     -0.014059                    
P  9 -14478.346634  -5537.310368  21523.610976    447.234079                    
V  9  13579.207996 -23873.380711   2974.959999     -0.057096                    
P 10  16550.796188     29.146795 -20756.319345    100.218814                    
V 10  12195.882127  23468.257840   9540.045599     -0.084047                    
P 11  -7217.176189 -14941.195117 -21270.966804   -647.337269                    
V 11  23665.275002 -10842.467472   -665.082459      0.065028                    
P 12  10140.347560  24599.050679  -1902.588170    261.297550                    
V 12  -2645.883889  -1126.508533 -32014.730260     -0.032513                    
P 13 -11615.592009  22811.199826  -7125.821545    -72.198272                    
V 13  -7411.707807   5497.669395  30207.623567      0.013789                    
P 14  18585.965175 -17221.161358  -7336.691005    -88.840260                    
V 14  -3349.275650   9620.148575 -29994.950067      0.014040                    
P 15    988.534374  22395.031193 -14199.041379   -324.189563                    
V 15 -10508.249815  14740.452107  23327.616084      0.018284                    
P 16   2214.642593 -20866.648739  15832.923210    -24.475768                    
V 16   9991.811787  18057.145734  22573.844292     -0.026021                    
P 17 -18973.703823  10138.461902 -15109.453687     21.435739                    
V 17   9749.995036 -17440.977029 -23409.364867      0.055304                    
P 18  -2015.215534 -15539.148372 -21936.012937     33.560184                    
V 18  26719.538857   -896.879355  -1722.102703      0.035774                    
P 19 -19284.140936  16421.990071  -8449.073997   -343.811506                    
V 19   4656.019215  -9340.208299 -29727.383395      0.042589                    
P 20  20156.826581   8616.906427 -15201.281995    522.964517                    
V 20   9123.536292  17021.663407  21758.797683      0.003637                    
P 21  25502.640543   3917.856045   6814.175602   -235.112959                    
V 21  -7535.725122   3360.828271  29942.279438      0.073610                    
P 22  -8648.284869 -23881.949250  -7624.187089   -661.517284                    
V 22   8495.402022   6449.734848 -28879.540879     -0.076474                    
P 23  -7396.151886 -16127.156492  19962.163166   -194.513735                    
V 23  13663.503973 -20791.208515 -12334.490566      0.013567                    
P 24   8853.288376  14723.403795 -20482.750511    -63.190782                    
V 24 -25628.813734   1710.014838  -9596.296193     -0.005736                    
P 25  16982.281168  18560.206469   8715.702393   -731.289761                    
V 25   3553.341454  10898.427233 -29188.562092     -0.050381                    
P 26   9520.244024 -13216.843088  20930.759523    145.605976                    
V 26  14206.718138  22599.899679   7976.883945      0.101669                    
P 27  11418.550130 -23569.393709  -3401.402834    -83.384621                    
V 27   4289.517692  -2367.622137  31955.964064     -0.078575                    
P 28 -16012.809021  -2617.260349 -20399.877999    766.076817                    
V 28 -10203.979205 -25300.882151  11021.737044      0.006281                    
P 29  10142.573139  10917.879695  21960.164488    252.481003                    
V 29 -16061.294427  22781.204115  -3898.923004     -0.088196                    
P 30 -26567.105647    -72.879849  -2185.802914    -66.134108                    
V 30  -2576.526052  -3436.390522  31036.800973     -0.065924                    
P 31  21953.404228  -8067.687008  12996.085938     53.117235                    
V 31  16222.430553   2733.398285 -25273.237586     -0.026870                    
P 32  18716.441704 -13103.469235 -13406.411017   -187.765719                    
V 32  -6663.441605  15982.153893 -24948.415506      0.186776                    
EOF
